[{"OBJECT_NAME":"SPIP","OBJECT_ID":"2023-174AU","EPOCH":"2026-03-09T22:52:46.383168","MEAN_MOTION":15.26695413,"ECCENTRICITY":0.00100427,"INCLINATION":97.3901,"RA_OF_ASC_NODE":146.4534,"ARG_OF_PERICENTER":168.1112,"MEAN_ANOMALY":192.0366,"EPHEMERIS_TYPE":0,"CLASSIFICATION_TYPE":"U","NORAD_CAT_ID":58298,"ELEMENT_SET_NO":999,"REV_AT_EPOCH":12963,"BSTAR":0.00025731582,"MEAN_MOTION_DOT":6.692e-5,"MEAN_MOTION_DDOT":0},{"OBJECT_NAME":"STARLINK-35916","OBJECT_ID":"2025-263V","EPOCH":"2026-03-08T19:39:42.958080","MEAN_MOTION":15.27594257,"ECCENTRICITY":6.423e-5,"INCLINATION":42.9965,"RA_OF_ASC_NODE":359.2903,"ARG_OF_PERICENTER":328.5572,"MEAN_ANOMALY":31.5241,"EPHEMERIS_TYPE":0,"CLASSIFICATION_TYPE":"U","NORAD_CAT_ID":66504,"ELEMENT_SET_NO":999,"REV_AT_EPOCH":1872,"BSTAR":0.0011589109,"MEAN_MOTION_DOT":0.0003178,"MEAN_MOTION_DDOT":0}]
